     2.100          NAVIGATION                              RINEX VERSION / TYPE
fic2rin                                 09/25/2008 01:33:59 PGM / RUN BY / DATE
                                                            END OF HEADER
14 08  9 24  4  0  0.0 -.215969979763D-03  .477484718431D-11  .000000000000D+00
     .480000000000D+02  .805625000000D+02  .395052169794D-08  .294694913855D+00
     .427290797234D-05  .422461156268D-02  .623986124992D-05  .515373730278D+04
     .273600000000D+06  .130385160446D-07 -.166201467598D+00  .633299350739D-07
     .989386108634D+00  .275156250000D+03 -.217720291708D+01 -.793961643118D-08
     .135719938995D-10  .100000000000D+01  .149800000000D+04  .000000000000D+00
     .240000000000D+01  .000000000000D+00 -.931322574615D-08  .480000000000D+02
     .266406000000D+06  .400000000000D+01
15 08  9 24  4  0  0.0 -.182557851076D-03 -.648014975013D-11  .000000000000D+00
     .840000000000D+02  .805625000000D+02  .454018911710D-08  .115780055435D+01
     .405684113503D-05  .933332135901D-03  .721216201782D-05  .515370766640D+04
     .273600000000D+06 -.316649675369D-07 -.210954195820D+00 -.372529029846D-08
     .957644665973D+00  .238156250000D+03 -.117258392086D+01 -.813819613139D-08
     .178578867098D-11  .100000000000D+01  .149800000000D+04  .000000000000D+00
     .340000000000D+01  .000000000000D+00 -.977888703346D-08  .840000000000D+02
     .266406000000D+06  .400000000000D+01
16 08  9 24  4  0  0.0  .105288811028D-03 -.204636307899D-11  .000000000000D+00
     .104000000000D+03 -.101000000000D+03  .412017162169D-08  .210273272408D+01
    -.509805977345D-05  .472570245620D-02  .936724245548D-05  .515368164635D+04
     .273600000000D+06 -.353902578354D-07  .191543950488D+01  .204890966415D-07
     .966247531288D+00  .201218750000D+03 -.394539997329D+00 -.782639742944D-08
    -.700029159024D-10  .100000000000D+01  .149800000000D+04  .000000000000D+00
     .240000000000D+01  .000000000000D+00 -.977888703346D-08  .104000000000D+03
     .266406000000D+06  .400000000000D+01
17 08  9 24  4  0  0.0  .390857458115D-04  .227373675443D-12  .000000000000D+00
     .450000000000D+02 -.546875000000D+01  .453447459335D-08  .943896771901D+00
    -.366941094398D-06  .382718374021D-02  .976026058197D-05  .515359399986D+04
     .273600000000D+06 -.372529029846D-08  .295679676575D+01  .577419996262D-07
     .960036370260D+00  .192093750000D+03 -.278815584568D+01 -.791354391658D-08
     .410017078857D-09  .100000000000D+01  .149800000000D+04  .000000000000D+00
     .240000000000D+01  .000000000000D+00 -.102445483208D-07  .450000000000D+02
     .266406000000D+06  .400000000000D+01
18 08  9 24  4  0  0.0 -.130638945848D-03  .409272615798D-11  .000000000000D+00
     .880000000000D+02  .232812500000D+02  .477019869792D-08  .226481916989D+01
     .118464231491D-05  .988349132240D-02  .907853245735D-05  .515372539520D+04
     .273600000000D+06 -.173225998878D-06 -.121139625810D+01 -.132247805595D-06
     .945733512363D+00  .198531250000D+03 -.246192505109D+01 -.805604985253D-08
    -.344657213499D-09  .100000000000D+01  .149800000000D+04  .000000000000D+00
     .240000000000D+01  .000000000000D+00 -.107102096081D-07  .880000000000D+02
     .266406000000D+06  .400000000000D+01
19 08  9 24  4  0  0.0  .355574302375D-04  .113686837722D-12  .000000000000D+00
     .117000000000D+03  .203125000000D+01  .466126558899D-08  .394934853548D+00
     .109896063805D-06  .490923074540D-02  .920891761780D-05  .515372993660D+04
     .273600000000D+06  .763684511185D-07  .301352455369D+01 -.391155481339D-07
     .957812828406D+00  .199250000000D+03 -.482535128371D+00 -.805390690612D-08
     .440732643998D-09  .100000000000D+01  .149800000000D+04  .000000000000D+00
     .340000000000D+01  .000000000000D+00 -.144354999065D-07  .117000000000D+03
     .266406000000D+06  .400000000000D+01
20 08  9 24  4  0  0.0  .103789381683D-03 -.102318153949D-11  .000000000000D+00
     .100000000000D+02  .406875000000D+02  .478519932276D-08  .232900212735D+01
     .200234353542D-05  .352563429624D-02  .939518213272D-05  .515377040100D+04
     .273600000000D+06 -.745058059692D-08 -.126509185428D+01 -.949949026108D-07
     .945257892825D+00  .188281250000D+03  .136263210447D+01 -.804676375144D-08
    -.429660754238D-09  .100000000000D+01  .149800000000D+04  .000000000000D+00
     .240000000000D+01  .000000000000D+00 -.651925802231D-08  .100000000000D+02
     .266406000000D+06  .400000000000D+01
21 08  9 24  4  0  0.0  .494169071317D-04 -.147792889038D-11  .000000000000D+00
     .109000000000D+03  .133750000000D+02  .540022494104D-08 -.281528003361D+01
     .575557351112D-06  .143061940325D-01  .634975731373D-05  .515368061256D+04
     .273600000000D+06 -.147148966789D-06 -.227027371993D+01 -.264495611191D-06
     .935442637078D+00  .247875000000D+03 -.267641962716D+01 -.828891669522D-08
    -.282154610015D-10  .100000000000D+01  .149800000000D+04  .000000000000D+00
     .240000000000D+01  .000000000000D+00 -.116415321827D-07  .109000000000D+03
     .266406000000D+06  .400000000000D+01
22 08  9 24  4  0  0.0  .210775062442D-03  .000000000000D+00  .000000000000D+00
     .310000000000D+02  .289375000000D+02  .498699344258D-08  .105149983722D+01
     .154972076416D-05  .513928162400D-02  .908784568310D-05  .515366918945D+04
     .273600000000D+06 -.894069671631D-07 -.120516390817D+01  .242143869400D-07
     .943384242940D+00  .197500000000D+03 -.182897442522D+01 -.828177354054D-08
    -.341799951626D-09  .100000000000D+01  .149800000000D+04  .000000000000D+00
     .240000000000D+01  .000000000000D+00 -.176951289177D-07  .310000000000D+02
     .266406000000D+06  .400000000000D+01
23 08  9 24  4  0  0.0  .374294817448D-03  .136424205266D-11  .000000000000D+00
     .430000000000D+02  .925000000000D+02  .426946355458D-08 -.270250924967D+00
     .466220080853D-05  .587385392282D-02  .654160976410D-05  .515369463539D+04
     .273600000000D+06  .763684511185D-07 -.194406011756D+00 -.894069671631D-07
     .971467955917D+00  .259500000000D+03  .283933539246D+01 -.812462413749D-08
     .775032283206D-10  .100000000000D+01  .149800000000D+04  .000000000000D+00
     .240000000000D+01  .000000000000D+00 -.200234353542D-07  .430000000000D+02
     .266406000000D+06  .400000000000D+01
24 08  9 24  4  0  0.0  .127716455609D-03  .306954461848D-11  .000000000000D+00
     .141000000000D+03  .133437500000D+02  .506378235543D-08  .213219811783D+01
     .670552253723D-06  .749568943866D-02  .616163015366D-05  .515365558624D+04
     .273600000000D+06  .109896063805D-06 -.224228172607D+01  .447034835815D-07
     .952075123259D+00  .255875000000D+03 -.706897085421D+00 -.821284209784D-08
    -.146077513286D-09  .100000000000D+01  .149800000000D+04  .000000000000D+00
     .485000000000D+01  .000000000000D+00 -.139698386192D-08  .141000000000D+03
     .266406000000D+06  .400000000000D+01
25 08  9 24  4  0  0.0 -.133710447699D-03  .420641299570D-10  .000000000000D+00
     .720000000000D+02 -.210312500000D+02  .452233123039D-08  .263601816883D+01
    -.101141631603D-05  .115911950124D-01  .199116766453D-05  .515369415474D+04
     .273600000000D+06  .912696123123D-07  .753302121097D+00  .614672899246D-07
     .966403320360D+00  .343468750000D+03 -.124922568555D+01 -.816676875013D-08
    -.964325882329D-10  .100000000000D+01  .149800000000D+04  .000000000000D+00
     .340000000000D+01  .000000000000D+00 -.745058059692D-08  .720000000000D+02
     .266406000000D+06  .400000000000D+01
26 08  9 24  4  0  0.0  .329966191202D-03  .534328137292D-11  .000000000000D+00
     .890000000000D+02  .803125000000D+02  .387587573150D-08 -.766199413155D+00
     .439397990704D-05  .191480341600D-01  .699795782566D-05  .515363332558D+04
     .273600000000D+06  .372529029846D-08 -.149892213167D+00  .379979610443D-06
     .993635759843D+00  .262625000000D+03  .954769038626D+00 -.803890628129D-08
     .182150444440D-10  .100000000000D+01  .149800000000D+04  .000000000000D+00
     .340000000000D+01  .000000000000D+00 -.605359673500D-08  .890000000000D+02
     .266406000000D+06  .400000000000D+01
27 08  9 24  4  0  0.0  .219894573092D-03  .284217094304D-11  .000000000000D+00
     .200000000000D+02 -.256875000000D+02  .437161066656D-08  .259927326838D+01
    -.145845115185D-05  .211924059549D-01  .176578760147D-05  .515372892380D+04
     .273600000000D+06  .195577740669D-06  .788523222666D+00 -.102445483208D-06
     .970994807248D+00  .346218750000D+03 -.168504700305D+01 -.796926052312D-08
    -.112504686272D-09  .100000000000D+01  .149800000000D+04  .000000000000D+00
     .240000000000D+01  .000000000000D+00 -.419095158577D-08  .200000000000D+02
     .266406000000D+06  .400000000000D+01
29 08  9 24  4  0  0.0 -.367327593267D-04  .102318153949D-11  .000000000000D+00
     .920000000000D+02  .831250000000D+01  .444768526394D-08 -.267534492804D+01
     .327825546265D-06  .345741119236D-02  .968948006630D-05  .515359473610D+04
     .273600000000D+06  .186264514923D-07  .296495714662D+01  .279396772385D-07
     .960186291567D+00  .188500000000D+03 -.137147475083D+01 -.786318467606D-08
     .440375486264D-09  .100000000000D+01  .149800000000D+04  .000000000000D+00
     .240000000000D+01  .000000000000D+00 -.884756445885D-08  .920000000000D+02
     .266406000000D+06  .400000000000D+01
30 08  9 24  4  0  0.0  .982796773314D-04  .204636307899D-11  .000000000000D+00
     .490000000000D+02 -.999687500000D+02  .449661587353D-08  .182327062028D+01
    -.541470944881D-05  .111268876353D-01  .783242285252D-05  .515369438934D+04
     .273600000000D+06  .782310962677D-07  .185510122926D+01 -.253319740295D-06
     .949496980303D+00  .222687500000D+03  .140142075999D+01 -.808212236712D-08
    -.310727228751D-10  .100000000000D+01  .149800000000D+04  .000000000000D+00
     .240000000000D+01  .000000000000D+00 -.791624188423D-08  .490000000000D+02
     .266406000000D+06  .400000000000D+01
